OBJECT_NAME,OBJECT_ID,EPOCH,MEAN_MOTION,ECCENTRICITY,INCLINATION,RA_OF_ASC_NODE,ARG_OF_PERICENTER,MEAN_ANOMALY,EPHEMERIS_TYPE,CLASSIFICATION_TYPE,NORAD_CAT_ID,ELEMENT_SET_NO,REV_AT_EPOCH,BSTAR,MEAN_MOTION_DOT,MEAN_MOTION_DDOT
SL-14 R/B,1990-018B,2026-07-14T19:47:23.894304,14.82233955,.0017054,82.5217,104.2767,38.0266,322.2148,0,U,20511,999,94141,.23938E-4,.215E-5,0
HST,1990-037B,2026-07-14T12:32:33.992160,15.31057008,.000222,28.4723,253.7049,97.0463,263.0385,0,U,20580,999,79276,.10789E-3,.3561E-4,0
SL-16 R/B,1990-046B,2026-07-14T19:12:45.389376,14.15024507,.0012417,70.9986,30.9528,115.0915,245.1498,0,U,20625,999,86637,.14504E-3,.234E-5,0
COSMOS 2084,1990-055A,2026-07-14T13:08:28.572288,15.06222480,.0008008,62.7884,262.6983,317.5125,42.5355,0,U,20663,999,95542,.72029E-4,.858E-5,0
SL-6 R/B(2),1990-055D,2026-07-14T07:24:00.109440,15.04085810,.00449936,62.7804,183.0791,8.8848,351.3037,0,U,20666,999,95723,.86685447E-4,.1022E-4,0
SL-8 R/B,1990-078B,2026-07-14T19:22:00.631200,14.93566536,.0343525,82.9037,136.6628,304.8543,52.0813,0,U,20775,999,82824,.28172E-3,.994E-4,0
SL-8 R/B,1991-006B,2026-07-14T19:29:37.985280,13.77509169,.0023458,82.9408,75.4811,41.5485,29.5651,0,U,21088,999,78157,.75496E-4,.91E-6,0
OKEAN-3,1991-039A,2026-07-14T14:10:42.084768,15.05432304,.0012352,82.5142,213.8044,256.9890,102.9958,0,U,21397,999,88412,.1196E-3,.1747E-4,0
COSMOS 2151,1991-042A,2026-07-14T19:14:17.484864,15.00512432,.0011999,82.4981,321.0307,356.8608,3.2538,0,U,21422,999,88225,.50515E-4,.664E-5,0
SL-14 R/B,1991-042B,2026-07-14T20:05:17.220768,14.81917929,.0016944,82.4932,100.9674,178.0767,182.0515,0,U,21423,999,87190,.19595E-4,.179E-5,0
ERS-1,1991-050A,2026-07-14T16:33:10.533600,14.39532781,.0031833,98.7797,217.0592,183.2424,176.8561,0,U,21574,999,83400,.63404E-4,.153E-5,0
ARIANE 40 R/B,1991-050F,2026-07-14T17:11:53.522016,14.42971720,.0004181,98.1864,243.0592,62.5151,297.6464,0,U,21610,999,83731,.48673E-4,.121E-5,0
INTERCOSMOS 25,1991-086A,2026-07-14T14:20:56.954688,12.12240062,.1484556,82.6009,233.2225,203.2142,149.4604,0,U,21819,999,51206,.33527E-4,.183E-5,0
SL-8 R/B,1992-008B,2026-07-14T11:28:53.238144,13.75983684,.00356321,82.9271,173.4962,138.5622,337.8235,0,U,21876,999,72685,.90058953E-4,.103E-5,0
SL-8 R/B,1992-020B,2026-07-14T16:40:36.621120,13.75550267,.002798,82.9280,59.4220,304.9708,115.6914,0,U,21938,999,71859,.19552E-5,.17E-6,0
USA 81,1992-023A,2026-07-14T17:28:44.044320,14.32404872,.0002004,85.0051,58.1082,65.1095,295.0306,0,U,21949,999,11297,.32856E-4,.109E-5,0
COSMOS 2219,1992-076A,2026-07-14T20:22:21.169632,14.14108844,.0018243,71.0612,112.2476,358.0043,2.1003,0,U,22219,999,73635,-.87208E-4,-.213E-5,0
SL-16 R/B,1992-076B,2026-07-14T17:10:15.750048,14.16877254,.0015026,71.0005,280.7921,262.7553,213.2657,0,U,22220,999,73982,.10831E-3,.169E-5,0
COSMOS 2221,1992-080A,2026-07-14T08:26:17.950560,14.96602587,.00156607,82.5046,157.7385,122.8012,237.4721,0,U,22236,999,79973,.71266677E-4,.84E-5,0
SL-16 R/B,1992-093B,2026-07-14T19:17:02.768064,14.15465963,.0002288,71.0218,97.4176,135.8346,224.2960,0,U,22285,999,73114,-.94634E-4,-.232E-5,0
COSMOS 2228,1992-094A,2026-07-14T19:34:09.596640,14.97674800,.0016282,82.5188,115.5794,230.5333,129.4450,0,U,22286,999,79508,.68782E-4,.834E-5,0
SL-16 R/B,1993-016B,2026-07-14T17:10:47.446752,14.15312394,.0008864,71.0085,308.3875,138.8661,221.3131,0,U,22566,999,72014,.11429E-3,.175E-5,0
COSMOS 2242,1993-024A,2026-07-14T20:30:17.726112,14.96984317,.0014645,82.5198,145.0728,233.8768,126.1100,0,U,22626,999,79941,.74259E-4,.882E-5,0
SL-16 R/B,1993-059B,2026-07-14T19:18:26.131968,14.17249565,.0016627,70.9902,103.0648,9.1003,351.0419,0,U,22803,999,69754,-.57242E-4,-.164E-5,0
ARIANE 40 R/B,1993-061H,2026-07-14T18:53:53.716128,14.32918418,.0009478,98.4807,262.0694,267.1096,92.9004,0,U,22830,999,71230,.42714E-4,.74E-6,0
COSMOS 2278,1994-023A,2026-07-14T14:47:56.723136,14.14393212,.0009667,71.0524,269.5368,206.4362,153.6269,0,U,23087,999,66275,.13914E-4,-.21E-6,0
SL-16 R/B,1994-023B,2026-07-14T07:45:39.689856,14.15024237,.00014252,70.9983,164.9425,131.3069,228.8177,0,U,23088,999,66400,.61027087E-4,.71E-6,0
SL-16 R/B,1994-074B,2026-07-14T21:09:36.452160,14.79524133,.0007143,97.6986,221.4475,155.2032,295.6450,0,U,23343,999,70605,.32408E-4,.193E-5,0
SL-16 R/B,1994-077B,2026-07-14T19:42:04.659264,14.15574303,.0004077,70.9822,85.0270,303.5802,56.4932,0,U,23405,999,63422,-.27402E-4,-.102E-5,0
ARIANE 40+ R/B,1995-021B,2026-07-14T19:03:40.931136,14.39847424,.0007892,98.4401,265.4688,117.5067,8.0673,0,U,23561,999,63753,.50948E-4,.117E-5,0
SL-16 R/B,1995-058B,2026-07-14T14:55:40.094976,14.15508580,.001461,71.0210,273.7590,283.5085,76.4410,0,U,23705,999,58581,.97514E-4,.143E-5,0
